STARLINK-5433           
1 54793U 22175AM  26068.24917115 -.00002039  00000+0 -11012-3 0  9990
2 54793  53.2191  21.1085 0000932  87.8844 272.2255 15.08825022180200
LEMUR-2-STELLA          
1 60533U 24149BT  26068.72657350  .00013685  00000+0  85776-3 0  9992
2 60533  97.6764 150.9122 0001299  95.1117 265.0260 15.09464064 85488
